[{"OBJECT_NAME":"STARLINK-30480","OBJECT_ID":"2023-158U","EPOCH":"2026-03-09T12:13:58.064448","MEAN_MOTION":15.27582544,"ECCENTRICITY":0.00035568,"INCLINATION":42.9995,"RA_OF_ASC_NODE":245.8442,"ARG_OF_PERICENTER":286.239,"MEAN_ANOMALY":73.807,"EPHEMERIS_TYPE":0,"CLASSIFICATION_TYPE":"U","NORAD_CAT_ID":58069,"ELEMENT_SET_NO":999,"REV_AT_EPOCH":13521,"BSTAR":0.00032269699,"MEAN_MOTION_DOT":8.629e-5,"MEAN_MOTION_DDOT":0},{"OBJECT_NAME":"TEVEL2-1","OBJECT_ID":"2025-052H","EPOCH":"2026-03-09T15:32:51.927072","MEAN_MOTION":15.30341923,"ECCENTRICITY":0.0004767,"INCLINATION":97.3991,"RA_OF_ASC_NODE":324.7682,"ARG_OF_PERICENTER":104.8919,"MEAN_ANOMALY":255.2849,"EPHEMERIS_TYPE":0,"CLASSIFICATION_TYPE":"U","NORAD_CAT_ID":63217,"ELEMENT_SET_NO":999,"REV_AT_EPOCH":5485,"BSTAR":0.000706,"MEAN_MOTION_DOT":0.00020683,"MEAN_MOTION_DDOT":0}]
